{
  "type": "FeatureCollection",
  "features": [
    {
      "type": "Feature",
      "properties": {
        "norad_id": 31498,
        "name": "FENGYUN 1C DEB",
        "group": "fengyun-1c-debris",
        "lat": -28.36625432158466,
        "lon": 144.6934281026737,
        "alt_km": 998.1087483655447,
        "timestamp": "2025-12-25T07:00:34.330898+00:00",
        "meta_object_name": "FENGYUN 1C DEB",
        "meta_object_id": "1999-025BWM",
        "meta_epoch": "2025-12-20T21:23:31.452864",
        "meta_mean_motion": 13.77022887,
        "meta_eccentricity": 0.0219158,
        "meta_inclination": 98.4859,
        "meta_ra_of_asc_node": 325.3849,
        "meta_arg_of_pericenter": 122.8448,
        "meta_mean_anomaly": 239.4012,
        "meta_ephemeris_type": 0,
        "meta_classification_type": "U",
        "meta_norad_cat_id": 31498,
        "meta_element_set_no": 999,
        "meta_rev_at_epoch": 92846,
        "meta_bstar": 0.0012225,
        "meta_mean_motion_dot": 1.406e-05,
        "meta_mean_motion_ddot": 0,
        "tle_line1": "1 31498U 99025BWM 25354.89133626  .00001406  00000+0  12225-2 0  9991",
        "tle_line2": "2 31498  98.4859 325.3849 0219158 122.8448 239.4012 13.77022887928464"
      },
      "geometry": {
        "type": "Point",
        "coordinates": [
          144.6934281026737,
          -28.36625432158466
        ]
      }
    },
    {
      "type": "Feature",
      "properties": {
        "norad_id": 31503,
        "name": "FENGYUN 1C DEB",
        "group": "fengyun-1c-debris",
        "lat": 19.816704480713824,
        "lon": -136.46470048471733,
        "alt_km": 839.4618766271296,
        "timestamp": "2025-12-25T07:00:34.330908+00:00",
        "meta_object_name": "FENGYUN 1C DEB",
        "meta_object_id": "1999-025BWS",
        "meta_epoch": "2025-12-23T21:09:21.265632",
        "meta_mean_motion": 14.22635113,
        "meta_eccentricity": 0.0048906,
        "meta_inclination": 100.0985,
        "meta_ra_of_asc_node": 225.603,
        "meta_arg_of_pericenter": 155.2657,
        "meta_mean_anomaly": 205.0876,
        "meta_ephemeris_type": 0,
        "meta_classification_type": "U",
        "meta_norad_cat_id": 31503,
        "meta_element_set_no": 999,
        "meta_rev_at_epoch": 64405,
        "meta_bstar": 0.00094914,
        "meta_mean_motion_dot": 2.094e-05,
        "meta_mean_motion_ddot": 0,
        "tle_line1": "1 31503U 99025BWS 25357.88149613  .00002094  00000+0  94914-3 0  9993",
        "tle_line2": "2 31503 100.0985 225.6030 0048906 155.2657 205.0876 14.22635113644058"
      },
      "geometry": {
        "type": "Point",
        "coordinates": [
          -136.46470048471733,
          19.816704480713824
        ]
      }
    },
    {
      "type": "Feature",
      "properties": {
        "norad_id": 31507,
        "name": "FENGYUN 1C DEB",
        "group": "fengyun-1c-debris",
        "lat": -12.315377207402786,
        "lon": 33.04320563598644,
        "alt_km": 671.1129175244141,
        "timestamp": "2025-12-25T07:00:34.330918+00:00",
        "meta_object_name": "FENGYUN 1C DEB",
        "meta_object_id": "1999-025BWW",
        "meta_epoch": "2025-12-24T08:12:17.080704",
        "meta_mean_motion": 14.52213744,
        "meta_eccentricity": 0.01173681,
        "meta_inclination": 98.1925,
        "meta_ra_of_asc_node": 30.3135,
        "meta_arg_of_pericenter": 42.7408,
        "meta_mean_anomaly": 21.2973,
        "meta_ephemeris_type": 0,
        "meta_classification_type": "U",
        "meta_norad_cat_id": 31507,
        "meta_element_set_no": 999,
        "meta_rev_at_epoch": 98189,
        "meta_bstar": 0.00041736618,
        "meta_mean_motion_dot": 1.805e-05,
        "meta_mean_motion_ddot": 0,
        "tle_line1": "1 31507U 99025BWW 25358.34186436  .00001805  00000+0  41737-3 0  9997",
        "tle_line2": "2 31507  98.1925  30.3135 0117368  42.7408  21.2973 14.52213744981890"
      },
      "geometry": {
        "type": "Point",
        "coordinates": [
          33.04320563598644,
          -12.315377207402786
        ]
      }
    },
    {
      "type": "Feature",
      "properties": {
        "norad_id": 31508,
        "name": "FENGYUN 1C DEB",
        "group": "fengyun-1c-debris",
        "lat": 38.66717299029151,
        "lon": -64.61306528494161,
        "alt_km": 700.9200916594036,
        "timestamp": "2025-12-25T07:00:34.330929+00:00",
        "meta_object_name": "FENGYUN 1C DEB",
        "meta_object_id": "1999-025BWX",
        "meta_epoch": "2025-12-22T06:07:52.254624",
        "meta_mean_motion": 14.62716626,
        "meta_eccentricity": 0.00341369,
        "meta_inclination": 98.626,
        "meta_ra_of_asc_node": 105.2382,
        "meta_arg_of_pericenter": 295.1567,
        "meta_mean_anomaly": 64.6094,
        "meta_ephemeris_type": 0,
        "meta_classification_type": "U",
        "meta_norad_cat_id": 31508,
        "meta_element_set_no": 999,
        "meta_rev_at_epoch": 97063,
        "meta_bstar": 0.0030278047,
        "meta_mean_motion_dot": 0.00015531,
        "meta_mean_motion_ddot": 0,
        "tle_line1": "1 31508U 99025BWX 25356.25546591  .00015531  00000+0  30278-2 0  9996",
        "tle_line2": "2 31508  98.6260 105.2382 0034136 295.1567  64.6094 14.62716626970638"
      },
      "geometry": {
        "type": "Point",
        "coordinates": [
          -64.61306528494161,
          38.66717299029151
        ]
      }
    },
    {
      "type": "Feature",
      "properties": {
        "norad_id": 31509,
        "name": "FENGYUN 1C DEB",
        "group": "fengyun-1c-debris",
        "lat": 11.079572044845698,
        "lon": 116.4913299688151,
        "alt_km": 1060.5739345323727,
        "timestamp": "2025-12-25T07:00:34.330939+00:00",
        "meta_object_name": "FENGYUN 1C DEB",
        "meta_object_id": "1999-025BWY",
        "meta_epoch": "2025-12-24T18:54:12.775104",
        "meta_mean_motion": 13.94966489,
        "meta_eccentricity": 0.02044455,
        "meta_inclination": 99.0225,
        "meta_ra_of_asc_node": 117.7807,
        "meta_arg_of_pericenter": 185.9842,
        "meta_mean_anomaly": 173.8874,
        "meta_ephemeris_type": 0,
        "meta_classification_type": "U",
        "meta_norad_cat_id": 31509,
        "meta_element_set_no": 999,
        "meta_rev_at_epoch": 94130,
        "meta_bstar": 0.0018573001,
        "meta_mean_motion_dot": 2.932e-05,
        "meta_mean_motion_ddot": 0,
        "tle_line1": "1 31509U 99025BWY 25358.78764786  .00002932  00000+0  18573-2 0  9990",
        "tle_line2": "2 31509  99.0225 117.7807 0204445 185.9842 173.8874 13.94966489941308"
      },
      "geometry": {
        "type": "Point",
        "coordinates": [
          116.4913299688151,
          11.079572044845698
        ]
      }
    },
    {
      "type": "Feature",
      "properties": {
        "norad_id": 31510,
        "name": "FENGYUN 1C DEB",
        "group": "fengyun-1c-debris",
        "lat": 40.576272583893775,
        "lon": -9.240810523031406,
        "alt_km": 814.0481426069255,
        "timestamp": "2025-12-25T07:00:34.330950+00:00",
        "meta_object_name": "FENGYUN 1C DEB",
        "meta_object_id": "1999-025BWZ",
        "meta_epoch": "2025-12-20T19:32:19.154112",
        "meta_mean_motion": 14.24579723,
        "meta_eccentricity": 0.0036702,
        "meta_inclination": 98.5531,
        "meta_ra_of_asc_node": 353.8036,
        "meta_arg_of_pericenter": 307.7687,
        "meta_mean_anomaly": 180.91,
        "meta_ephemeris_type": 0,
        "meta_classification_type": "U",
        "meta_norad_cat_id": 31510,
        "meta_element_set_no": 999,
        "meta_rev_at_epoch": 96602,
        "meta_bstar": 0.00036270315,
        "meta_mean_motion_dot": 8.05e-06,
        "meta_mean_motion_ddot": 0,
        "tle_line1": "1 31510U 99025BWZ 25354.81411058  .00000805  00000+0  36270-3 0  9995",
        "tle_line2": "2 31510  98.5531 353.8036 0036702 307.7687 180.9100 14.24579723966023"
      },
      "geometry": {
        "type": "Point",
        "coordinates": [
          -9.240810523031406,
          40.576272583893775
        ]
      }
    },
    {
      "type": "Feature",
      "properties": {
        "norad_id": 31511,
        "name": "FENGYUN 1C DEB",
        "group": "fengyun-1c-debris",
        "lat": -13.204987508951861,
        "lon": -13.723119374856058,
        "alt_km": 723.9845890393126,
        "timestamp": "2025-12-25T07:00:34.330961+00:00",
        "meta_object_name": "FENGYUN 1C DEB",
        "meta_object_id": "1999-025BXA",
        "meta_epoch": "2025-12-24T18:20:10.999680",
        "meta_mean_motion": 14.28150849,
        "meta_eccentricity": 0.01093127,
        "meta_inclination": 99.0669,
        "meta_ra_of_asc_node": 167.876,
        "meta_arg_of_pericenter": 192.3166,
        "meta_mean_anomaly": 167.5338,
        "meta_ephemeris_type": 0,
        "meta_classification_type": "U",
        "meta_norad_cat_id": 31511,
        "meta_element_set_no": 999,
        "meta_rev_at_epoch": 95972,
        "meta_bstar": 0.0013644628,
        "meta_mean_motion_dot": 3.573e-05,
        "meta_mean_motion_ddot": 0,
        "tle_line1": "1 31511U 99025BXA 25358.76401620  .00003573  00000+0  13645-2 0  9993",
        "tle_line2": "2 31511  99.0669 167.8760 0109312 192.3166 167.5338 14.28150849959728"
      },
      "geometry": {
        "type": "Point",
        "coordinates": [
          -13.723119374856058,
          -13.204987508951861
        ]
      }
    }
  ]
}